[{"OBJECT_NAME":"STARLINK-3835","OBJECT_ID":"2022-049AB","EPOCH":"2026-03-09T22:37:47.727264","MEAN_MOTION":15.0883786,"ECCENTRICITY":0.00014517,"INCLINATION":53.218,"RA_OF_ASC_NODE":48.223,"ARG_OF_PERICENTER":85.3165,"MEAN_ANOMALY":274.7993,"EPHEMERIS_TYPE":0,"CLASSIFICATION_TYPE":"U","NORAD_CAT_ID":52476,"ELEMENT_SET_NO":999,"REV_AT_EPOCH":21366,"BSTAR":2.543137e-5,"MEAN_MOTION_DOT":1.17e-6,"MEAN_MOTION_DDOT":0},{"OBJECT_NAME":"STARLING 3","OBJECT_ID":"2023-100D","EPOCH":"2026-03-09T22:41:57.048288","MEAN_MOTION":15.11145977,"ECCENTRICITY":0.00066311,"INCLINATION":99.5096,"RA_OF_ASC_NODE":65.6477,"ARG_OF_PERICENTER":76.1122,"MEAN_ANOMALY":284.0839,"EPHEMERIS_TYPE":0,"CLASSIFICATION_TYPE":"U","NORAD_CAT_ID":57389,"ELEMENT_SET_NO":999,"REV_AT_EPOCH":14507,"BSTAR":0.00051487914,"MEAN_MOTION_DOT":8.551e-5,"MEAN_MOTION_DDOT":0}]
